<?xml version="1.0" encoding="UTF-8"?>
<kml xmlns="http://www.opengis.net/kml/2.2">
  <Document>
    <name>Casa Generativa — Límite del terreno</name>
    <Style id="limite">
      <LineStyle><color>ff0000ff</color><width>2</width></LineStyle>
      <PolyStyle><color>400000ff</color></PolyStyle>
    </Style>
    <Style id="vertex">
      <IconStyle><color>ffff0000</color><scale>0.8</scale></IconStyle>
    </Style>
    <Placemark>
      <name>Límite</name>
      <styleUrl>#limite</styleUrl>
      <Polygon>
        <outerBoundaryIs>
          <LinearRing>
            <coordinates>-79.61021493,9.17075486,0 -79.61034362,9.17064782,0 -79.61039886,9.17057133,0 -79.61072778,9.17053357,0 -79.61087777,9.17009695,0 -79.61079029,9.17007205,0 -79.61036772,9.17022454,0 -79.61029011,9.17049401,0 -79.61021493,9.17075486,0</coordinates>
          </LinearRing>
        </outerBoundaryIs>
      </Polygon>
    </Placemark>
    
    <Placemark>
      <name>P1</name>
      <styleUrl>#vertex</styleUrl>
      <Point><coordinates>-79.61021493,9.17075486,0</coordinates></Point>
    </Placemark>
    <Placemark>
      <name>P2</name>
      <styleUrl>#vertex</styleUrl>
      <Point><coordinates>-79.61034362,9.17064782,0</coordinates></Point>
    </Placemark>
    <Placemark>
      <name>P3</name>
      <styleUrl>#vertex</styleUrl>
      <Point><coordinates>-79.61039886,9.17057133,0</coordinates></Point>
    </Placemark>
    <Placemark>
      <name>P4</name>
      <styleUrl>#vertex</styleUrl>
      <Point><coordinates>-79.61072778,9.17053357,0</coordinates></Point>
    </Placemark>
    <Placemark>
      <name>P5</name>
      <styleUrl>#vertex</styleUrl>
      <Point><coordinates>-79.61087777,9.17009695,0</coordinates></Point>
    </Placemark>
    <Placemark>
      <name>P6</name>
      <styleUrl>#vertex</styleUrl>
      <Point><coordinates>-79.61079029,9.17007205,0</coordinates></Point>
    </Placemark>
    <Placemark>
      <name>P7</name>
      <styleUrl>#vertex</styleUrl>
      <Point><coordinates>-79.61036772,9.17022454,0</coordinates></Point>
    </Placemark>
    <Placemark>
      <name>P8</name>
      <styleUrl>#vertex</styleUrl>
      <Point><coordinates>-79.61029011,9.17049401,0</coordinates></Point>
    </Placemark>
  </Document>
</kml>