{
  "type": "FeatureCollection",
  "features": [
    {
      "type": "Feature",
      "geometry": {
        "type": "Polygon",
        "coordinates": [
          [
            [
              -79.6102149302563,
              9.17075486333396
            ],
            [
              -79.61034373265888,
              9.170618532751512
            ],
            [
              -79.61039903100475,
              9.170525071418766
            ],
            [
              -79.61072788541568,
              9.170505108745811
            ],
            [
              -79.61087776863631,
              9.170096947846782
            ],
            [
              -79.61079029466764,
              9.17007204810164
            ],
            [
              -79.61036772057089,
              9.170224535082651
            ],
            [
              -79.61029010838386,
              9.170494005829408
            ],
            [
              -79.6102149302563,
              9.17075486333396
            ]
          ]
        ]
      },
      "properties": {
        "nombre": "Límite del terreno",
        "area_calculada_m2": 2305.38,
        "area_plano_m2": 2634.29,
        "crs_origen": "UTM Zone 17N EPSG:32617",
        "crs_archivo": "WGS84 (EPSG:4326) — transformado desde UTM Zone 17N"
      }
    },
    {
      "type": "Feature",
      "geometry": {
        "type": "Point",
        "coordinates": [
          -79.6102149302563,
          9.17075486333396
        ]
      },
      "properties": {
        "punto": 1,
        "norte_crtm05": 1014025.65,
        "este_crtm05": 652698.82,
        "tipo": "conocido"
      }
    },
    {
      "type": "Feature",
      "geometry": {
        "type": "Point",
        "coordinates": [
          -79.61034373265888,
          9.170618532751512
        ]
      },
      "properties": {
        "punto": 2,
        "norte_crtm05": 1014010.5186,
        "este_crtm05": 652684.7238,
        "tipo": "calculado"
      }
    },
    {
      "type": "Feature",
      "geometry": {
        "type": "Point",
        "coordinates": [
          -79.61039903100475,
          9.170525071418766
        ]
      },
      "properties": {
        "punto": 3,
        "norte_crtm05": 1014000.1592,
        "este_crtm05": 652678.6869,
        "tipo": "calculado"
      }
    },
    {
      "type": "Feature",
      "geometry": {
        "type": "Point",
        "coordinates": [
          -79.61072788541568,
          9.170505108745811
        ]
      },
      "properties": {
        "punto": 4,
        "norte_crtm05": 1013997.8119,
        "este_crtm05": 652642.5567,
        "tipo": "calculado"
      }
    },
    {
      "type": "Feature",
      "geometry": {
        "type": "Point",
        "coordinates": [
          -79.61087776863631,
          9.170096947846782
        ]
      },
      "properties": {
        "punto": 5,
        "norte_crtm05": 1013952.61,
        "este_crtm05": 652626.26,
        "tipo": "conocido"
      }
    },
    {
      "type": "Feature",
      "geometry": {
        "type": "Point",
        "coordinates": [
          -79.61079029466764,
          9.17007204810164
        ]
      },
      "properties": {
        "punto": 6,
        "norte_crtm05": 1013949.8935,
        "este_crtm05": 652635.8834,
        "tipo": "calculado"
      }
    },
    {
      "type": "Feature",
      "geometry": {
        "type": "Point",
        "coordinates": [
          -79.61036772057089,
          9.170224535082651
        ]
      },
      "properties": {
        "punto": 7,
        "norte_crtm05": 1013966.9364,
        "este_crtm05": 652682.2562,
        "tipo": "calculado"
      }
    },
    {
      "type": "Feature",
      "geometry": {
        "type": "Point",
        "coordinates": [
          -79.61029010838386,
          9.170494005829408
        ]
      },
      "properties": {
        "punto": 8,
        "norte_crtm05": 1013996.77,
        "este_crtm05": 652690.67,
        "tipo": "conocido"
      }
    }
  ]
}